*******************************************************************************
Ephemeris / WWW_USER Mon Mar 10 07:13:09 2025 Pasadena, USA      / Horizons    
*******************************************************************************
Target body name: (2018 OG)                       {source: JPL#12}
Center body name: Earth (399)                     {source: DE441}
Center-site name: Mauna Kea
*******************************************************************************
Start time      : A.D. 2018-Nov-15 03:52:00.0000 UT      
Stop  time      : A.D. 2018-Nov-15 16:20:00.0000 UT      
Step-size       : 1 minutes
*******************************************************************************
Target pole/equ : undefined
Target radii    : undefined                                                    
Center geodetic : 204.5278, 19.8260847, 4.21024   {E-lon(deg),Lat(deg),Alt(km)}
Center cylindric: 204.5278, 6006.35451, 2151.0229 {E-lon(deg),Dxy(km),Dz(km)}
Center pole/equ : ITRF93                          {East-longitude positive}
Center radii    : 6378.137, 6378.137, 6356.752 km {Equator_a, b, pole_c}       
Target primary  : Sun
Vis. interferer : MOON (R_eq= 1737.400) km        {source: DE441}
Rel. light bend : Sun                             {source: DE441}
Rel. lght bnd GM: 1.3271E+11 km^3/s^2                                          
Small-body perts: Yes                             {source: SB441-N16}
Atmos refraction: NO (AIRLESS)
RA format       : HMS
Time format     : CAL 
Calendar mode   : Mixed Julian/Gregorian
RTS-only print  : NO       
EOP file        : eop.250307.p250603                                           
EOP coverage    : DATA-BASED 1962-JAN-20 TO 2025-MAR-07. PREDICTS-> 2025-JUN-02
Units conversion: 1 au= 149597870.700 km, c= 299792.458 km/s, 1 day= 86400.0 s 
Table cut-offs 1: Elevation (-90.0deg=NO ),Airmass (>38.000=NO), Daylight (YES)
Table cut-offs 2: Solar elongation (  0.0,180.0=NO ),Local Hour Angle( 0.0=NO )
Table cut-offs 3: RA/DEC angular rate (     0.0=NO )                           
*******************************************************************************
Initial IAU76/J2000 heliocentric ecliptic osculating elements (au, days, deg.):
  EPOCH=  2458389.5 ! 2018-Sep-28.00 (TDB)         Residual RMS= .17662        
   EC= .5817218672922059   QR= .9873203561553971   TP= 2458366.942240702       
   OM= 131.0345430575832   W=  220.7633135105564   IN= 9.123860581277821       
  Equivalent ICRF heliocentric cartesian coordinates (au, au/d):
   X= 9.625437195102586E-01  Y= 3.686106454146055E-01  Z=-5.877845729655690E-03
  VX=-3.555418036941177E-03 VY= 1.979451357965206E-02 VZ= 6.659913004156397E-03
Asteroid physical parameters (km, seconds, rotational period in hours):        
   GM= n.a.                RAD= n.a.               ROTPER= n.a.                
   H= 23.6                 G= .150                 B-V= n.a.                   
                           ALBEDO= n.a.            STYP= n.a.                  
*******************************************************************************
 Date__(UT)__HR:MN     R.A._________(ICRF)_________DEC
******************************************************
$$SOE
 2018-Nov-15 05:55  m  06 17 26.511108 -02 27 32.94129
 2018-Nov-15 05:56  m  06 17 26.449500 -02 27 32.48016
 2018-Nov-15 05:57  m  06 17 26.387867 -02 27 32.01903
 2018-Nov-15 05:58  m  06 17 26.326210 -02 27 31.55790
 2018-Nov-15 05:59  m  06 17 26.264529 -02 27 31.09675
 2018-Nov-15 06:00  m  06 17 26.202824 -02 27 30.63561
 2018-Nov-15 06:01  m  06 17 26.141095 -02 27 30.17445
 2018-Nov-15 06:02  m  06 17 26.079342 -02 27 29.71329
 2018-Nov-15 06:03  m  06 17 26.017565 -02 27 29.25213
 2018-Nov-15 06:04  m  06 17 25.955763 -02 27 28.79096
 2018-Nov-15 06:05  m  06 17 25.893938 -02 27 28.32979
 2018-Nov-15 06:06  m  06 17 25.832088 -02 27 27.86861
 2018-Nov-15 06:07  m  06 17 25.770214 -02 27 27.40742
 2018-Nov-15 06:08  m  06 17 25.708315 -02 27 26.94623
 2018-Nov-15 06:09  m  06 17 25.646393 -02 27 26.48504
 2018-Nov-15 06:10  m  06 17 25.584445 -02 27 26.02384
 2018-Nov-15 06:11  m  06 17 25.522474 -02 27 25.56263
 2018-Nov-15 06:12  m  06 17 25.460478 -02 27 25.10141
 2018-Nov-15 06:13  m  06 17 25.398458 -02 27 24.64019
 2018-Nov-15 06:14  m  06 17 25.336413 -02 27 24.17897
 2018-Nov-15 06:15  m  06 17 25.274344 -02 27 23.71774
 2018-Nov-15 06:16  m  06 17 25.212251 -02 27 23.25650
 2018-Nov-15 06:17  m  06 17 25.150133 -02 27 22.79525
 2018-Nov-15 06:18  m  06 17 25.087990 -02 27 22.33400
 2018-Nov-15 06:19  m  06 17 25.025823 -02 27 21.87275
 2018-Nov-15 06:20  m  06 17 24.963632 -02 27 21.41148
 2018-Nov-15 06:21  m  06 17 24.901415 -02 27 20.95021
 2018-Nov-15 06:22  m  06 17 24.839175 -02 27 20.48894
 2018-Nov-15 06:23  m  06 17 24.776909 -02 27 20.02765
 2018-Nov-15 06:24  m  06 17 24.714619 -02 27 19.56637
 2018-Nov-15 06:25  m  06 17 24.652305 -02 27 19.10507
 2018-Nov-15 06:26  m  06 17 24.589965 -02 27 18.64377
 2018-Nov-15 06:27  m  06 17 24.527601 -02 27 18.18246
 2018-Nov-15 06:28  m  06 17 24.465213 -02 27 17.72114
 2018-Nov-15 06:29  m  06 17 24.402799 -02 27 17.25982
 2018-Nov-15 06:30  m  06 17 24.340361 -02 27 16.79848
 2018-Nov-15 06:31  m  06 17 24.277898 -02 27 16.33715
 2018-Nov-15 06:32  m  06 17 24.215411 -02 27 15.87580
 2018-Nov-15 06:33  m  06 17 24.152898 -02 27 15.41445
 2018-Nov-15 06:34  m  06 17 24.090361 -02 27 14.95309
 2018-Nov-15 06:35  m  06 17 24.027799 -02 27 14.49172
 2018-Nov-15 06:36  m  06 17 23.965213 -02 27 14.03035
 2018-Nov-15 06:37  m  06 17 23.902601 -02 27 13.56896
 2018-Nov-15 06:38  m  06 17 23.839965 -02 27 13.10757
 2018-Nov-15 06:39  m  06 17 23.777303 -02 27 12.64618
 2018-Nov-15 06:40  m  06 17 23.714617 -02 27 12.18477
 2018-Nov-15 06:41  m  06 17 23.651906 -02 27 11.72336
 2018-Nov-15 06:42  m  06 17 23.589171 -02 27 11.26194
 2018-Nov-15 06:43  m  06 17 23.526410 -02 27 10.80051
 2018-Nov-15 06:44  m  06 17 23.463624 -02 27 10.33907
 2018-Nov-15 06:45  m  06 17 23.400814 -02 27 09.87762
 2018-Nov-15 06:46  m  06 17 23.337979 -02 27 09.41617
 2018-Nov-15 06:47  m  06 17 23.275118 -02 27 08.95471
 2018-Nov-15 06:48  m  06 17 23.212233 -02 27 08.49324
 2018-Nov-15 06:49  m  06 17 23.149323 -02 27 08.03176
 2018-Nov-15 06:50  m  06 17 23.086388 -02 27 07.57028
 2018-Nov-15 06:51  m  06 17 23.023428 -02 27 07.10878
 2018-Nov-15 06:52  m  06 17 22.960443 -02 27 06.64728
 2018-Nov-15 06:53  m  06 17 22.897433 -02 27 06.18576
 2018-Nov-15 06:54  m  06 17 22.834398 -02 27 05.72424
 2018-Nov-15 06:55  m  06 17 22.771338 -02 27 05.26271
 2018-Nov-15 06:56  r  06 17 22.708253 -02 27 04.80118
 2018-Nov-15 06:57  m  06 17 22.645144 -02 27 04.33963
 2018-Nov-15 06:58  m  06 17 22.582009 -02 27 03.87807
 2018-Nov-15 06:59  m  06 17 22.518849 -02 27 03.41651
 2018-Nov-15 07:00  m  06 17 22.455665 -02 27 02.95493
 2018-Nov-15 07:01  m  06 17 22.392455 -02 27 02.49335
 2018-Nov-15 07:02  m  06 17 22.329220 -02 27 02.03176
 2018-Nov-15 07:03  m  06 17 22.265961 -02 27 01.57015
 2018-Nov-15 07:04  m  06 17 22.202676 -02 27 01.10854
 2018-Nov-15 07:05  m  06 17 22.139367 -02 27 00.64692
 2018-Nov-15 07:06  m  06 17 22.076032 -02 27 00.18529
 2018-Nov-15 07:07  m  06 17 22.012673 -02 26 59.72365
 2018-Nov-15 07:08  m  06 17 21.949288 -02 26 59.26200
 2018-Nov-15 07:09  m  06 17 21.885879 -02 26 58.80034
 2018-Nov-15 07:10  m  06 17 21.822444 -02 26 58.33867
 2018-Nov-15 07:11  m  06 17 21.758985 -02 26 57.87700
 2018-Nov-15 07:12  m  06 17 21.695501 -02 26 57.41531
 2018-Nov-15 07:13  m  06 17 21.631991 -02 26 56.95361
 2018-Nov-15 07:14  m  06 17 21.568457 -02 26 56.49190
 2018-Nov-15 07:15  m  06 17 21.504898 -02 26 56.03018
 2018-Nov-15 07:16  m  06 17 21.441314 -02 26 55.56845
 2018-Nov-15 07:17  m  06 17 21.377705 -02 26 55.10671
 2018-Nov-15 07:18  m  06 17 21.314071 -02 26 54.64497
 2018-Nov-15 07:19  m  06 17 21.250412 -02 26 54.18321
 2018-Nov-15 07:20  m  06 17 21.186729 -02 26 53.72144
 2018-Nov-15 07:21  m  06 17 21.123020 -02 26 53.25965
 2018-Nov-15 07:22  m  06 17 21.059286 -02 26 52.79786
 2018-Nov-15 07:23  m  06 17 20.995528 -02 26 52.33606
 2018-Nov-15 07:24  m  06 17 20.931745 -02 26 51.87425
 2018-Nov-15 07:25  m  06 17 20.867936 -02 26 51.41243
 2018-Nov-15 07:26  m  06 17 20.804103 -02 26 50.95059
 2018-Nov-15 07:27  m  06 17 20.740246 -02 26 50.48875
 2018-Nov-15 07:28  m  06 17 20.676363 -02 26 50.02689
 2018-Nov-15 07:29  m  06 17 20.612455 -02 26 49.56503
 2018-Nov-15 07:30  m  06 17 20.548523 -02 26 49.10315
 2018-Nov-15 07:31  m  06 17 20.484566 -02 26 48.64126
 2018-Nov-15 07:32  m  06 17 20.420584 -02 26 48.17936
 2018-Nov-15 07:33  m  06 17 20.356577 -02 26 47.71745
 2018-Nov-15 07:34  m  06 17 20.292546 -02 26 47.25552
 2018-Nov-15 07:35  m  06 17 20.228490 -02 26 46.79359
 2018-Nov-15 07:36  m  06 17 20.164409 -02 26 46.33164
 2018-Nov-15 07:37  m  06 17 20.100303 -02 26 45.86969
 2018-Nov-15 07:38  m  06 17 20.036173 -02 26 45.40772
 2018-Nov-15 07:39  m  06 17 19.972018 -02 26 44.94574
 2018-Nov-15 07:40  m  06 17 19.907838 -02 26 44.48374
 2018-Nov-15 07:41  m  06 17 19.843634 -02 26 44.02174
 2018-Nov-15 07:42  m  06 17 19.779405 -02 26 43.55972
 2018-Nov-15 07:43  m  06 17 19.715151 -02 26 43.09769
 2018-Nov-15 07:44  m  06 17 19.650873 -02 26 42.63565
 2018-Nov-15 07:45  m  06 17 19.586570 -02 26 42.17360
 2018-Nov-15 07:46  m  06 17 19.522243 -02 26 41.71154
 2018-Nov-15 07:47  m  06 17 19.457891 -02 26 41.24946
 2018-Nov-15 07:48  m  06 17 19.393515 -02 26 40.78737
 2018-Nov-15 07:49  m  06 17 19.329114 -02 26 40.32527
 2018-Nov-15 07:50  m  06 17 19.264689 -02 26 39.86316
 2018-Nov-15 07:51  m  06 17 19.200239 -02 26 39.40103
 2018-Nov-15 07:52  m  06 17 19.135765 -02 26 38.93889
 2018-Nov-15 07:53  m  06 17 19.071266 -02 26 38.47674
 2018-Nov-15 07:54  m  06 17 19.006743 -02 26 38.01458
 2018-Nov-15 07:55  m  06 17 18.942196 -02 26 37.55240
 2018-Nov-15 07:56  m  06 17 18.877624 -02 26 37.09021
 2018-Nov-15 07:57  m  06 17 18.813028 -02 26 36.62801
